[{"OBJECT_NAME":"OBJECT AL","OBJECT_ID":"2023-085AL","EPOCH":"2026-03-09T22:26:04.970400","MEAN_MOTION":15.31857284,"ECCENTRICITY":0.000802,"INCLINATION":97.4839,"RA_OF_ASC_NODE":180.0127,"ARG_OF_PERICENTER":78.7242,"MEAN_ANOMALY":281.49,"EPHEMERIS_TYPE":0,"CLASSIFICATION_TYPE":"U","NORAD_CAT_ID":57038,"ELEMENT_SET_NO":999,"REV_AT_EPOCH":15154,"BSTAR":0.0006591637,"MEAN_MOTION_DOT":0.00020246,"MEAN_MOTION_DDOT":0},{"OBJECT_NAME":"STARLINK-35496","OBJECT_ID":"2025-237A","EPOCH":"2026-03-09T07:36:02.361600","MEAN_MOTION":15.3019216,"ECCENTRICITY":0.00014829,"INCLINATION":53.1623,"RA_OF_ASC_NODE":41.3452,"ARG_OF_PERICENTER":97.7172,"MEAN_ANOMALY":262.3997,"EPHEMERIS_TYPE":0,"CLASSIFICATION_TYPE":"U","NORAD_CAT_ID":66114,"ELEMENT_SET_NO":999,"REV_AT_EPOCH":2255,"BSTAR":0.00096285388,"MEAN_MOTION_DOT":0.00028259,"MEAN_MOTION_DDOT":0}]
